NORAD_CAT_ID,OBJECT_NAME,OBJECT_TYPE,EPOCH,MEAN_MOTION,ECCENTRICITY,INCLINATION,RA_OF_ASC_NODE,ARG_OF_PERICENTER,MEAN_ANOMALY,BSTAR,MEAN_MOTION_DOT,MEAN_MOTION_DDOT,TLE_LINE0,TLE_LINE1,TLE_LINE2,SEMIMAJOR_AXIS,PERIOD,APOGEE,PERIGEE,DECAYED
54009.0,STARLINK-5099,PAYLOAD,2022-12-15 01:30:51,15.0885157,0.0001450999999999,53.2138,113.763,53.7804,306.3322,0.00011735,1.581e-05,0.0,0 STARLINK-5099,1 54009U 22125AX  22349.06309730  .00001581  00000-0  11735-3 0  9993,2 54009  53.2138 113.7630 0001451  53.7804 306.3322 15.08851570 11282,6917.845,95.437,540.714,538.706,0.0
54009.0,STARLINK-5099,PAYLOAD,2022-12-15 14:13:55,15.08861693,0.0001527,53.2147,111.3835,56.5683,303.5455,7.9248e-05,9.74e-06,0.0,0 STARLINK-5099,1 54009U 22125AX  22349.59300870  .00000974  00000-0  79248-4 0  9996,2 54009  53.2147 111.3835 0001527  56.5683 303.5455 15.08861693 11310,6917.814,95.436,540.735,538.623,0.0
54009.0,STARLINK-5099,PAYLOAD,2022-12-15 17:24:42,15.08858373,0.0001763,53.2156,110.7901,55.2007,304.9151,7.0126e-05,8.29e-06,0.0,0 STARLINK-5099,1 54009U 22125AX  22349.72548954  .00000829  00000-0  70126-4 0  9993,2 54009  53.2156 110.7901 0001763  55.2007 304.9151 15.08858373 11336,6917.824000000001,95.436,540.909,538.47,0.0
54009.0,STARLINK-5099,PAYLOAD,2022-12-16 07:43:10,15.08848373,0.000179,53.2146,108.1133,60.9264,299.1907,-6.0581e-05,-1.252e-05,0.0,0 STARLINK-5099,1 54009U 22125AX  22350.32165043 -.00001252  00000-0 -60581-4 0  9992,2 54009  53.2146 108.1133 0001790  60.9264 299.1907 15.08848373 11479,6917.855,95.437,540.9580000000002,538.482,0.0
54009.0,STARLINK-5099,PAYLOAD,2022-12-16 14:04:43,15.08842482,0.0001595999999999,53.2157,106.9247,58.4067,301.7081,-1.2612e-05,-4.89e-06,0.0,0 STARLINK-5099,1 54009U 22125AX  22350.58661251 -.00000489  00000-0 -12612-4 0  9995,2 54009  53.2157 106.9247 0001596  58.4067 301.7081 15.08842482 11467,6917.873000000001,95.437,540.842,538.634,0.0
54009.0,STARLINK-5099,PAYLOAD,2022-12-16 17:15:29,15.0884457,0.0001495,53.2159,106.329,58.8834,301.2305,-2.452800000000001e-05,-6.78e-06,0.0,0 STARLINK-5099,1 54009U 22125AX  22350.71909535 -.00000678  00000-0 -24528-4 0  9999,2 54009  53.2159 106.3290 0001495  58.8834 301.2305 15.08844570 11537,6917.866,95.437,540.766,538.697,0.0
54009.0,STARLINK-5099,PAYLOAD,2022-12-17 13:55:30,15.088427,0.000198,53.2152,102.4644,56.344,303.7741,8.9912e-06,-1.45e-06,0.0,0 STARLINK-5099,1 54009U 22125AX  22351.58021368 -.00000145  00000-0  89912-5 0  9991,2 54009  53.2152 102.4644 0001980  56.3440 303.7741 15.08842700 11618,6917.871999999999,95.437,541.107,538.367,0.0
54009.0,STARLINK-5099,PAYLOAD,2022-12-17 17:06:16,15.0883729,0.0001754,53.2156,101.8688,58.8963,301.2201,-7.9168e-06,-4.14e-06,0.0,0 STARLINK-5099,1 54009U 22125AX  22351.71269658 -.00000414  00000-0 -79168-5 0  9994,2 54009  53.2156 101.8688 0001754  58.8963 301.2201 15.08837290 11633,6917.889,95.438,540.967,538.54,0.0
54009.0,STARLINK-5099,PAYLOAD,2022-12-18 13:46:17,15.0883783,0.0001682,53.2163,98.0029,54.9558,305.1592,0.0001248,1.699e-05,0.0,0 STARLINK-5099,1 54009U 22125AX  22352.57381793  .00001699  00000-0  12480-3 0  9990,2 54009  53.2163  98.0029 0001682  54.9558 305.1592 15.08837830 11764,6917.887,95.438,540.9159999999998,538.5880000000002,0.0
54009.0,STARLINK-5099,PAYLOAD,2022-12-19 16:47:51,15.08844514,0.0001685,53.2162,92.9466,56.8145,303.3009,0.00025217,3.728e-05,0.0,0 STARLINK-5099,1 54009U 22125AX  22353.69989955  .00003728  00000-0  25217-3 0  9995,2 54009  53.2162  92.9466 0001685  56.8145 303.3009 15.08844514 11981,6917.8669999999975,95.437,540.8969999999998,538.566,0.0
54009.0,STARLINK-5099,PAYLOAD,2022-12-19 18:23:14,15.08847641,0.0001675999999999,53.2163,92.6492,55.7752,304.3399,0.00029539,4.417e-05,0.0,0 STARLINK-5099,1 54009U 22125AX  22353.76613794  .00004417  00000-0  29539-3 0  9995,2 54009  53.2163  92.6492 0001676  55.7752 304.3399 15.08847641 11943,6917.857,95.437,540.881,538.563,0.0
54009.0,STARLINK-5099,PAYLOAD,2022-12-20 13:27:52,15.08844788,0.0001706999999999,53.2159,89.0819,57.6456,302.4701,0.00022866,3.353e-05,0.0,0 STARLINK-5099,1 54009U 22125AX  22354.56102120  .00003353  00000-0  22866-3 0  9994,2 54009  53.2159  89.0819 0001707  57.6456 302.4701 15.08844788 12067,6917.866,95.437,540.9119999999998,538.55,0.0
54009.0,STARLINK-5099,PAYLOAD,2022-12-21 08:32:30,15.08827778,0.0001531999999999,53.2161,85.5131,67.2639,292.8515,-0.00015355,-2.730000000000001e-05,0.0,0 STARLINK-5099,1 54009U 22125AX  22355.35590960 -.00002730  00000-0 -15355-3 0  9990,2 54009  53.2161  85.5131 0001532  67.2639 292.8515 15.08827778 12238,6917.918000000002,95.438,540.8430000000002,538.7230000000002,0.0
54009.0,STARLINK-5099,PAYLOAD,2022-12-21 13:18:40,15.08827526,0.0001614,53.2158,84.6211,71.0743,289.0424,-9.8877e-05,-1.861e-05,0.0,0 STARLINK-5099,1 54009U 22125AX  22355.55463157 -.00001861  00000-0 -98877-4 0  9994,2 54009  53.2158  84.6211 0001614  71.0743 289.0424 15.08827526 12219,6917.919,95.438,540.9,538.6669999999998,0.0
54009.0,STARLINK-5099,PAYLOAD,2022-12-21 14:54:03,15.08835361,0.0001565999999999,53.2158,84.3234,73.9885,286.128,0.00010901,1.447e-05,0.0,0 STARLINK-5099,1 54009U 22125AX  22355.62086930  .00001447  00000-0  10901-3 0  9991,2 54009  53.2158  84.3234 0001566  73.9885 286.1280 15.08835361 12275,6917.895,95.438,540.8430000000002,538.6759999999998,0.0
54009.0,STARLINK-5099,PAYLOAD,2022-12-22 08:23:17,15.08857408,0.0001466,53.216,81.0534,71.4868,288.6284,0.0007476,0.00011636,0.0,0 STARLINK-5099,1 54009U 22125AX  22356.34950435  .00011636  00000-0  74760-3 0  9995,2 54009  53.2160  81.0534 0001466  71.4868 288.6284 15.08857408 12387,6917.8269999999975,95.436,540.706,538.678,0.0
54009.0,STARLINK-5099,PAYLOAD,2022-12-22 11:34:03,15.08853652,0.0001374,53.2165,80.4581,71.2883,288.8258,0.00097726,0.00015305,0.0,0 STARLINK-5099,1 54009U 22125AX  22356.48198490  .00015305  00000-0  97726-3 0  9999,2 54009  53.2165  80.4581 0001374  71.2883 288.8258 15.08853652 12357,6917.839,95.437,540.654,538.753,0.0
54009.0,STARLINK-5099,PAYLOAD,2022-12-22 16:20:12,15.08845312,0.0001244,53.2151,79.5656,69.1126,290.9999,0.00030459,4.564e-05,0.0,0 STARLINK-5099,1 54009U 22125AX  22356.68070507  .00004564  00000-0  30459-3 0  9994,2 54009  53.2151  79.5656 0001244  69.1126 290.9999 15.08845312 12435,6917.864000000001,95.437,540.59,538.869,0.0
54009.0,STARLINK-5099,PAYLOAD,2022-12-22 17:55:36,15.0884159,0.000186,53.2167,79.26899999999998,56.0265,304.0904,0.00021461,3.129e-05,0.0,0 STARLINK-5099,1 54009U 22125AX  22356.74694733  .00003129  00000-0  21461-3 0  9993,2 54009  53.2167  79.2690 0001860  56.0265 304.0904 15.08841590 12392,6917.876,95.437,541.0269999999998,538.4540000000002,0.0
54009.0,STARLINK-5099,PAYLOAD,2022-12-23 08:14:04,15.0883407,0.0001344,53.2159,76.5928,65.8412,294.272,-0.00010965,-2.032e-05,0.0,0 STARLINK-5099,1 54009U 22125AX  22357.34310953 -.00002032  00000-0 -10965-3 0  9990,2 54009  53.2159  76.5928 0001344  65.8412 294.2720 15.08834070 12533,6917.899,95.438,540.693,538.8340000000002,0.0
54009.0,STARLINK-5099,PAYLOAD,2022-12-23 09:49:27,15.08832091,0.0001385,53.216,76.2955,64.2701,295.8434,-8.968600000000001e-05,-1.715e-05,0.0,0 STARLINK-5099,1 54009U 22125AX  22357.40935144 -.00001715  00000-0 -89686-4 0  9996,2 54009  53.2160  76.2955 0001385  64.2701 295.8434 15.08832091 12496,6917.905,95.438,540.7280000000002,538.811,0.0
54009.0,STARLINK-5099,PAYLOAD,2022-12-23 14:35:37,15.088339499999998,0.0001405,53.2159,75.4034,64.8055,295.3083,-5.0255e-05,-1.088e-05,0.0,0 STARLINK-5099,1 54009U 22125AX  22357.60807160 -.00001088  00000-0 -50255-4 0  9997,2 54009  53.2159  75.4034 0001405  64.8055 295.3083 15.08833950 12528,6917.899,95.438,540.736,538.7919999999998,0.0
54009.0,STARLINK-5099,PAYLOAD,2022-12-24 00:07:55,15.08845559,0.0001295,53.2159,73.619,68.8229,291.2901,0.00017977,2.575e-05,0.0,0 STARLINK-5099,1 54009U 22125AX  22358.00550722  .00002575  00000-0  17977-3 0  9994,2 54009  53.2159  73.6190 0001295  68.8229 291.2901 15.08845559 12639,6917.863,95.437,540.624,538.8330000000002,0.0
54009.0,STARLINK-5099,PAYLOAD,2022-12-24 11:15:37,15.08851279,0.0001339,53.2158,71.5374,65.7383,294.3749,0.00027904,4.157e-05,0.0,0 STARLINK-5099,1 54009U 22125AX  22358.46918423  .00004157  00000-0  27904-3 0  9999,2 54009  53.2158  71.5374 0001339  65.7383 294.3749 15.08851279 12657,6917.846,95.437,540.637,538.785,0.0
54009.0,STARLINK-5099,PAYLOAD,2022-12-24 12:51:00,15.08853024,0.0001395999999999,53.2158,71.2399,67.6589,292.4551,0.00037706,5.720000000000002e-05,0.0,0 STARLINK-5099,1 54009U 22125AX  22358.53542411  .00005720  00000-0  37706-3 0  9995,2 54009  53.2158  71.2399 0001396  67.6589 292.4551 15.08853024 12664,6917.840999999999,95.437,540.6709999999998,538.74,0.0
54009.0,STARLINK-5099,PAYLOAD,2022-12-25 04:44:51,15.08848553,0.0001268,53.2159,68.2669,66.2368,293.8757,0.00019398,2.801e-05,0.0,0 STARLINK-5099,1 54009U 22125AX  22359.19782335  .00002801  00000-0  19398-3 0  9993,2 54009  53.2159  68.2669 0001268  66.2368 293.8757 15.08848553 12810,6917.854,95.437,540.596,538.842,0.0
54009.0,STARLINK-5099,PAYLOAD,2022-12-25 11:06:24,15.08844521,0.0001401,53.2156,67.0769,68.1738,291.9403,0.00011904,1.607e-05,0.0,0 STARLINK-5099,1 54009U 22125AX  22359.46278432  .00001607  00000-0  11904-3 0  9999,2 54009  53.2156  67.0769 0001401  68.1738 291.9403 15.08844521 12803,6917.8669999999975,95.437,540.701,538.762,0.0
54009.0,STARLINK-5099,PAYLOAD,2022-12-25 14:17:11,15.08839869,0.0001564999999999,53.2154,66.4847,54.5726,305.5412,4.4807e-05,4.25e-06,0.0,0 STARLINK-5099,1 54009U 22125AX  22359.59526690  .00000425  00000-0  44807-4 0  9991,2 54009  53.2154  66.4847 0001565  54.5726 305.5412 15.08839869 12876,6917.880999999999,95.438,540.828,538.663,0.0
54009.0,STARLINK-5099,PAYLOAD,2022-12-26 10:57:12,15.08828785,0.0001574,53.2162,62.6167,63.4298,296.6855,-0.00016127,-2.853e-05,0.0,0 STARLINK-5099,1 54009U 22125AX  22360.45639551 -.00002853  00000-0 -16127-3 0  9991,2 54009  53.2162  62.6167 0001574  63.4298 296.6855 15.08828785 13003,6917.915,95.438,540.869,538.691,0.0
